CCSDS_OMM_VERS = 2.0
CREATION_DATE  = 
ORIGINATOR     = 

OBJECT_NAME    = SL-4 R/B
OBJECT_ID      = 2014-021B
CENTER_NAME    = EARTH
REF_FRAME      = TEME
TIME_SYSTEM    = UTC
MEAN_ELEMENT_THEORY = SGP/SGP4

EPOCH          = 2025-12-21T17:16:24.551904
MEAN_MOTION    = 15.36865299
ECCENTRICITY   = .0101
INCLINATION    = 51.6087
RA_OF_ASC_NODE = 356.9455
ARG_OF_PERICENTER = 178.5734
MEAN_ANOMALY   = 181.5556

EPHEMERIS_TYPE = 0
CLASSIFICATION_TYPE = U
NORAD_CAT_ID   = 39679
ELEMENT_SET_NO = 999
REV_AT_EPOCH   = 64427
BSTAR          = .20228E-3
MEAN_MOTION_DOT = .8347E-4
MEAN_MOTION_DDOT = 0

CCSDS_OMM_VERS = 2.0
CREATION_DATE  = 
ORIGINATOR     = 

OBJECT_NAME    = ALOS-2
OBJECT_ID      = 2014-029A
CENTER_NAME    = EARTH
REF_FRAME      = TEME
TIME_SYSTEM    = UTC
MEAN_ELEMENT_THEORY = SGP/SGP4

EPOCH          = 2025-12-21T20:57:49.279392
MEAN_MOTION    = 14.79472447
ECCENTRICITY   = .000139
INCLINATION    = 97.9232
RA_OF_ASC_NODE = 90.5898
ARG_OF_PERICENTER = 96.8709
MEAN_ANOMALY   = 263.2660

EPHEMERIS_TYPE = 0
CLASSIFICATION_TYPE = U
NORAD_CAT_ID   = 39766
ELEMENT_SET_NO = 999
REV_AT_EPOCH   = 62536
BSTAR          = .17955E-3
MEAN_MOTION_DOT = .129E-4
MEAN_MOTION_DDOT = 0

CCSDS_OMM_VERS = 2.0
CREATION_DATE  = 
ORIGINATOR     = 

OBJECT_NAME    = YAOGAN-29
OBJECT_ID      = 2015-069A
CENTER_NAME    = EARTH
REF_FRAME      = TEME
TIME_SYSTEM    = UTC
MEAN_ELEMENT_THEORY = SGP/SGP4

EPOCH          = 2025-12-21T20:40:37.081056
MEAN_MOTION    = 14.82889952
ECCENTRICITY   = .0000592
INCLINATION    = 98.0207
RA_OF_ASC_NODE = 19.0623
ARG_OF_PERICENTER = 171.0936
MEAN_ANOMALY   = 189.0288

EPHEMERIS_TYPE = 0
CLASSIFICATION_TYPE = U
NORAD_CAT_ID   = 41038
ELEMENT_SET_NO = 999
REV_AT_EPOCH   = 54434
BSTAR          = -.29186E-4
MEAN_MOTION_DOT = -.291E-5
MEAN_MOTION_DDOT = 0

CCSDS_OMM_VERS = 2.0
CREATION_DATE  = 
ORIGINATOR     = 

OBJECT_NAME    = ASTRO-H (HITOMI)
OBJECT_ID      = 2016-012A
CENTER_NAME    = EARTH
REF_FRAME      = TEME
TIME_SYSTEM    = UTC
MEAN_ELEMENT_THEORY = SGP/SGP4

EPOCH          = 2025-12-21T16:24:42.625152
MEAN_MOTION    = 15.09404617
ECCENTRICITY   = .000973
INCLINATION    = 30.9982
RA_OF_ASC_NODE = 139.7074
ARG_OF_PERICENTER = 268.3442
MEAN_ANOMALY   = 91.6082

EPHEMERIS_TYPE = 0
CLASSIFICATION_TYPE = U
NORAD_CAT_ID   = 41337
ELEMENT_SET_NO = 999
REV_AT_EPOCH   = 54043
BSTAR          = .16407E-3
MEAN_MOTION_DOT = .2784E-4
MEAN_MOTION_DDOT = 0

CCSDS_OMM_VERS = 2.0
CREATION_DATE  = 
ORIGINATOR     = 

OBJECT_NAME    = HXMT (HUIYAN)
OBJECT_ID      = 2017-034A
CENTER_NAME    = EARTH
REF_FRAME      = TEME
TIME_SYSTEM    = UTC
MEAN_ELEMENT_THEORY = SGP/SGP4

EPOCH          = 2025-12-21T17:59:35.589408
MEAN_MOTION    = 15.16331697
ECCENTRICITY   = .0031058
INCLINATION    = 43.0151
RA_OF_ASC_NODE = 89.6265
ARG_OF_PERICENTER = 102.5907
MEAN_ANOMALY   = 257.8417

EPHEMERIS_TYPE = 0
CLASSIFICATION_TYPE = U
NORAD_CAT_ID   = 42758
ELEMENT_SET_NO = 999
REV_AT_EPOCH   = 47070
BSTAR          = .26461E-3
MEAN_MOTION_DOT = .5047E-4
MEAN_MOTION_DDOT = 0

CCSDS_OMM_VERS = 2.0
CREATION_DATE  = 
ORIGINATOR     = 

OBJECT_NAME    = CZ-2C R/B
OBJECT_ID      = 2018-054D
CENTER_NAME    = EARTH
REF_FRAME      = TEME
TIME_SYSTEM    = UTC
MEAN_ELEMENT_THEORY = SGP/SGP4

EPOCH          = 2025-12-21T17:38:14.673984
MEAN_MOTION    = 15.75859679
ECCENTRICITY   = .0015066
INCLINATION    = 35.1331
RA_OF_ASC_NODE = 119.8116
ARG_OF_PERICENTER = 234.1630
MEAN_ANOMALY   = 125.7704

EPHEMERIS_TYPE = 0
CLASSIFICATION_TYPE = U
NORAD_CAT_ID   = 43521
ELEMENT_SET_NO = 999
REV_AT_EPOCH   = 41647
BSTAR          = .64963E-3
MEAN_MOTION_DOT = .106172E-2
MEAN_MOTION_DDOT = 0

CCSDS_OMM_VERS = 2.0
CREATION_DATE  = 
ORIGINATOR     = 

OBJECT_NAME    = SAOCOM 1A
OBJECT_ID      = 2018-076A
CENTER_NAME    = EARTH
REF_FRAME      = TEME
TIME_SYSTEM    = UTC
MEAN_ELEMENT_THEORY = SGP/SGP4

EPOCH          = 2025-12-19T21:29:30.366240
MEAN_MOTION    = 14.82168152
ECCENTRICITY   = .0001511
INCLINATION    = 97.8839
RA_OF_ASC_NODE = 178.2129
ARG_OF_PERICENTER = 80.1993
MEAN_ANOMALY   = 279.9391

EPHEMERIS_TYPE = 0
CLASSIFICATION_TYPE = U
NORAD_CAT_ID   = 43641
ELEMENT_SET_NO = 999
REV_AT_EPOCH   = 38954
BSTAR          = .13119E-3
MEAN_MOTION_DOT = .993E-5
MEAN_MOTION_DDOT = 0

CCSDS_OMM_VERS = 2.0
CREATION_DATE  = 
ORIGINATOR     = 

OBJECT_NAME    = H-2A R/B
OBJECT_ID      = 2018-084L
CENTER_NAME    = EARTH
REF_FRAME      = TEME
TIME_SYSTEM    = UTC
MEAN_ELEMENT_THEORY = SGP/SGP4

EPOCH          = 2025-12-21T19:17:16.037376
MEAN_MOTION    = 15.37671985
ECCENTRICITY   = .0026742
INCLINATION    = 98.8764
RA_OF_ASC_NODE = 191.7633
ARG_OF_PERICENTER = 294.7660
MEAN_ANOMALY   = 65.0798

EPHEMERIS_TYPE = 0
CLASSIFICATION_TYPE = U
NORAD_CAT_ID   = 43682
ELEMENT_SET_NO = 999
REV_AT_EPOCH   = 39379
BSTAR          = .44286E-3
MEAN_MOTION_DOT = .16485E-3
MEAN_MOTION_DDOT = 0

CCSDS_OMM_VERS = 2.0
CREATION_DATE  = 
ORIGINATOR     = 

OBJECT_NAME    = SAOCOM 1B
OBJECT_ID      = 2020-059A
CENTER_NAME    = EARTH
REF_FRAME      = TEME
TIME_SYSTEM    = UTC
MEAN_ELEMENT_THEORY = SGP/SGP4

EPOCH          = 2025-12-21T19:36:35.812224
MEAN_MOTION    = 14.82148317
ECCENTRICITY   = .0001456
INCLINATION    = 97.8833
RA_OF_ASC_NODE = 179.2068
ARG_OF_PERICENTER = 87.6965
MEAN_ANOMALY   = 272.4415

EPHEMERIS_TYPE = 0
CLASSIFICATION_TYPE = U
NORAD_CAT_ID   = 46265
ELEMENT_SET_NO = 999
REV_AT_EPOCH   = 28721
BSTAR          = .1417E-3
MEAN_MOTION_DOT = .1076E-4
MEAN_MOTION_DDOT = 0

CCSDS_OMM_VERS = 2.0
CREATION_DATE  = 
ORIGINATOR     = 

OBJECT_NAME    = CSS (TIANHE)
OBJECT_ID      = 2021-035A
CENTER_NAME    = EARTH
REF_FRAME      = TEME
TIME_SYSTEM    = UTC
MEAN_ELEMENT_THEORY = SGP/SGP4

EPOCH          = 2025-12-21T19:25:02.931744
MEAN_MOTION    = 15.59540108
ECCENTRICITY   = .0007793
INCLINATION    = 41.4687
RA_OF_ASC_NODE = 321.6327
ARG_OF_PERICENTER = 110.3856
MEAN_ANOMALY   = 249.7820

EPHEMERIS_TYPE = 0
CLASSIFICATION_TYPE = U
NORAD_CAT_ID   = 48274
ELEMENT_SET_NO = 999
REV_AT_EPOCH   = 26544
BSTAR          = .19295E-3
MEAN_MOTION_DOT = .15482E-3
MEAN_MOTION_DDOT = 0

CCSDS_OMM_VERS = 2.0
CREATION_DATE  = 
ORIGINATOR     = 

OBJECT_NAME    = COSMOS 2550
OBJECT_ID      = 2021-056A
CENTER_NAME    = EARTH
REF_FRAME      = TEME
TIME_SYSTEM    = UTC
MEAN_ELEMENT_THEORY = SGP/SGP4

EPOCH          = 2025-12-19T21:34:23.418624
MEAN_MOTION    = 15.33838622
ECCENTRICITY   = .0008368
INCLINATION    = 67.1455
RA_OF_ASC_NODE = 282.2793
ARG_OF_PERICENTER = 269.6426
MEAN_ANOMALY   = 90.3770

EPHEMERIS_TYPE = 0
CLASSIFICATION_TYPE = U
NORAD_CAT_ID   = 48865
ELEMENT_SET_NO = 999
REV_AT_EPOCH   = 25122
BSTAR          = .8251269E-5
MEAN_MOTION_DOT = .8E-6
MEAN_MOTION_DDOT = 0

CCSDS_OMM_VERS = 2.0
CREATION_DATE  = 
ORIGINATOR     = 

OBJECT_NAME    = CZ-2C R/B
OBJECT_ID      = 2022-058K
CENTER_NAME    = EARTH
REF_FRAME      = TEME
TIME_SYSTEM    = UTC
MEAN_ELEMENT_THEORY = SGP/SGP4

EPOCH          = 2025-12-21T17:03:53.030880
MEAN_MOTION    = 15.48905850
ECCENTRICITY   = .0044872
INCLINATION    = 50.1912
RA_OF_ASC_NODE = 357.7834
ARG_OF_PERICENTER = 235.5696
MEAN_ANOMALY   = 124.1027

EPHEMERIS_TYPE = 0
CLASSIFICATION_TYPE = U
NORAD_CAT_ID   = 52794
ELEMENT_SET_NO = 999
REV_AT_EPOCH   = 19802
BSTAR          = .3687E-3
MEAN_MOTION_DOT = .20687E-3
MEAN_MOTION_DDOT = 0

