SL-4 R/B                
1 39679U 14021B   25355.71972861  .00008347  00000+0  20228-3 0  9991
2 39679  51.6087 356.9455 0101000 178.5734 181.5556 15.36865299644275
ALOS-2                  
1 39766U 14029A   25355.87348703  .00001290  00000+0  17955-3 0  9998
2 39766  97.9232  90.5898 0001390  96.8709 263.2660 14.79472447625362
YAOGAN-29               
1 41038U 15069A   25355.86154029 -.00000291  00000+0 -29186-4 0  9995
2 41038  98.0207  19.0623 0000592 171.0936 189.0288 14.82889952544340
ASTRO-H (HITOMI)        
1 41337U 16012A   25355.68382668  .00002784  00000+0  16407-3 0  9996
2 41337  30.9982 139.7074 0009730 268.3442  91.6082 15.09404617540439
HXMT (HUIYAN)           
1 42758U 17034A   25355.74971747  .00005047  00000+0  26461-3 0  9994
2 42758  43.0151  89.6265 0031058 102.5907 257.8417 15.16331697470703
CZ-2C R/B               
1 43521U 18054D   25355.73489206  .00106172  00000+0  64963-3 0  9999
2 43521  35.1331 119.8116 0015066 234.1630 125.7704 15.75859679416477
SAOCOM 1A               
1 43641U 18076A   25353.89549035  .00000993  00000+0  13119-3 0  9999
2 43641  97.8839 178.2129 0001511  80.1993 279.9391 14.82168152389549
H-2A R/B                
1 43682U 18084L   25355.80365784  .00016485  00000+0  44286-3 0  9995
2 43682  98.8764 191.7633 0026742 294.7660  65.0798 15.37671985393790
SAOCOM 1B               
1 46265U 20059A   25355.81708116  .00001076  00000+0  14170-3 0  9990
2 46265  97.8833 179.2068 0001456  87.6965 272.4415 14.82148317287217
CSS (TIANHE)            
1 48274U 21035A   25355.80906171  .00015482  00000+0  19295-3 0  9996
2 48274  41.4687 321.6327 0007793 110.3856 249.7820 15.59540108265442
COSMOS 2550             
1 48865U 21056A   25353.89888216  .00000080  00000+0  82513-5 0  9994
2 48865  67.1455 282.2793 0008368 269.6426  90.3770 15.33838622251223
CZ-2C R/B               
1 52794U 22058K   25355.71103045  .00020687  00000+0  36870-3 0  9994
2 52794  50.1912 357.7834 0044872 235.5696 124.1027 15.48905850198027
